NORAD_CAT_ID,OBJECT_NAME,OBJECT_TYPE,EPOCH,MEAN_MOTION,ECCENTRICITY,INCLINATION,RA_OF_ASC_NODE,ARG_OF_PERICENTER,MEAN_ANOMALY,BSTAR,MEAN_MOTION_DOT,MEAN_MOTION_DDOT,TLE_LINE0,TLE_LINE1,TLE_LINE2,SEMIMAJOR_AXIS,PERIOD,APOGEE,PERIGEE,DECAYED
56785.0,STARLINK-5931,PAYLOAD,2024-01-18 12:11:44,14.98327684,0.0003121,70.0002,154.2181,268.7709,91.3092,1.3686e-05,7e-07,0.0,0 STARLINK-5931,1 56785U 23078U   24018.50815366  .00000070  00000-0  13686-4 0  9995,2 56785  70.0002 154.2181 0003121 268.7709  91.3092 14.98327684 35925,6950.2,96.107,574.234,569.896,0.0
56785.0,STARLINK-5931,PAYLOAD,2024-01-18 13:47:52,14.98327746,0.0003071,70.0004,154.0498,268.6801,91.4006,2.8976e-05,2.53e-06,0.0,0 STARLINK-5931,1 56785U 23078U   24018.57491333  .00000253  00000-0  28976-4 0  9997,2 56785  70.0004 154.0498 0003071 268.6801  91.4006 14.98327746 36366,6950.2,96.107,574.199,569.93,0.0
56785.0,STARLINK-5931,PAYLOAD,2024-01-18 18:36:16,14.98332225,0.0003037,70.0004,153.5449,268.3395,91.7417,7.4878e-05,8.01e-06,0.0,0 STARLINK-5931,1 56785U 23078U   24018.77518921  .00000801  00000-0  74878-4 0  9993,2 56785  70.0004 153.5449 0003037 268.3395  91.7417 14.98332225 36393,6950.186,96.107,574.162,569.94,0.0
56785.0,STARLINK-5931,PAYLOAD,2024-01-19 13:49:53,14.98330113,0.0002791,70.0014,151.5276,256.2459,103.8389,4.5183e-05,4.46e-06,0.0,0 STARLINK-5931,1 56785U 23078U   24019.57631090  .00000446  00000-0  45183-4 0  9997,2 56785  70.0014 151.5276 0002791 256.2459 103.8389 14.98330113 36514,6950.193,96.107,573.997,570.118,0.0
56785.0,STARLINK-5931,PAYLOAD,2024-01-19 18:38:17,14.98332889,0.0002751,70.0015,151.0232,255.0631,105.0223,7.4381e-05,7.95e-06,0.0,0 STARLINK-5931,1 56785U 23078U   24019.77658804  .00000795  00000-0  74381-4 0  9990,2 56785  70.0015 151.0232 0002751 255.0631 105.0223 14.98332889 36116,6950.184,96.107,573.961,570.137,0.0
56785.0,STARLINK-5931,PAYLOAD,2024-01-20 13:51:54,14.9832863,0.0002638,70.0017,149.0036,254.9708,105.1159,-2.2977e-05,-3.67e-06,0.0,0 STARLINK-5931,1 56785U 23078U   24020.57771257 -.00000367  00000-0 -22977-4 0  9999,2 56785  70.0017 149.0036 0002638 254.9708 105.1159 14.98328630 36662,6950.197,96.107,573.896,570.229,0.0
56785.0,STARLINK-5931,PAYLOAD,2024-01-20 18:40:18,14.98327438,0.0002679,70.0016,148.498,258.066,102.0199,-3.6328e-05,-5.26e-06,0.0,0 STARLINK-5931,1 56785U 23078U   24020.77799405 -.00000526  00000-0 -36328-4 0  9998,2 56785  70.0016 148.4980 0002679 258.0660 102.0199 14.98327438 36260,6950.201,96.107,573.928,570.204,0.0
56785.0,STARLINK-5931,PAYLOAD,2024-01-21 10:41:38,14.98333201,0.0002848,70.0012,146.8139,264.0267,96.0567,-1.6196e-05,-2.86e-06,0.0,0 STARLINK-5931,1 56785U 23078U   24021.44558921 -.00000286  00000-0 -16196-4 0  9993,2 56785  70.0012 146.8139 0002848 264.0267  96.0567 14.98333201 36369,6950.183,96.107,574.027,570.069,0.0
56785.0,STARLINK-5931,PAYLOAD,2024-01-21 18:42:18,14.98337203,0.000279,70.0013,145.9725,263.5063,96.5778,3.3061e-05,3.02e-06,0.0,0 STARLINK-5931,1 56785U 23078U   24021.77938431  .00000302  00000-0  33061-4 0  9994,2 56785  70.0013 145.9725 0002790 263.5063  96.5778 14.98337203 36843,6950.171,96.107,573.975,570.097,0.0
56785.0,STARLINK-5931,PAYLOAD,2024-01-22 10:43:40,14.98325672,0.0002679,70.0016,144.2894,263.523,96.5624,2.1337e-05,1.62e-06,0.0,0 STARLINK-5931,1 56785U 23078U   24022.44699089  .00000162  00000-0  21337-4 0  9999,2 56785  70.0016 144.2894 0002679 263.5230  96.5624 14.98325672 36518,6950.206,96.107,573.933,570.209,0.0
56785.0,STARLINK-5931,PAYLOAD,2024-01-22 17:08:12,14.98326082,0.0002685,70.0017,143.6163,264.0461,96.0392,2.1709e-05,1.66e-06,0.0,0 STARLINK-5931,1 56785U 23078U   24022.71403119  .00000166  00000-0  21709-4 0  9993,2 56785  70.0017 143.6163 0002685 264.0461  96.0392 14.98326082 36984,6950.205,96.107,573.936,570.204,0.0
56785.0,STARLINK-5931,PAYLOAD,2024-01-23 10:45:40,14.98333978,0.0002701,70.0017,141.7651,257.4446,102.6411,9.804e-06,2.4e-07,0.0,0 STARLINK-5931,1 56785U 23078U   24023.44838520  .00000024  00000-0  98040-5 0  9998,2 56785  70.0017 141.7651 0002701 257.4446 102.6411 14.98333978 36666,6950.181,96.107,573.923,570.168,0.0
56785.0,STARLINK-5931,PAYLOAD,2024-01-23 17:10:12,14.98334602,0.0002706,70.0017,141.0921,256.2984,103.7874,1.2377e-05,5.5e-07,0.0,0 STARLINK-5931,1 56785U 23078U   24023.71542393  .00000055  00000-0  12377-4 0  9990,2 56785  70.0017 141.0921 0002706 256.2984 103.7874 14.98334602 37131,6950.179,96.107,573.924,570.163,0.0
56785.0,STARLINK-5931,PAYLOAD,2024-01-24 12:23:50,14.98323848,0.0002681,70.0018,139.0743,254.0715,106.0149,-3.1559e-05,-4.69e-06,0.0,0 STARLINK-5931,1 56785U 23078U   24024.51655192 -.00000469  00000-0 -31559-4 0  9995,2 56785  70.0018 139.0743 0002681 254.0715 106.0149 14.98323848 36827,6950.212,96.107,573.94,570.214,0.0
56785.0,STARLINK-5931,PAYLOAD,2024-01-24 13:59:58,14.98323348,0.0002695,70.0016,138.9054,253.7754,106.3108,-3.5732e-05,-5.19e-06,0.0,0 STARLINK-5931,1 56785U 23078U   24024.58331254 -.00000519  00000-0 -35732-4 0  9995,2 56785  70.0016 138.9054 0002695 253.7754 106.3108 14.98323348 37264,6950.213,96.107,573.952,570.205,0.0
56785.0,STARLINK-5931,PAYLOAD,2024-01-24 17:12:14,14.98323262,0.0002704,70.0015,138.5684,256.4348,103.651,-3.6934e-05,-5.34e-06,0.0,0 STARLINK-5931,1 56785U 23078U   24024.71683318 -.00000534  00000-0 -36934-4 0  9993,2 56785  70.0015 138.5684 0002704 256.4348 103.6510 14.98323262 37282,6950.214,96.107,573.958,570.199,0.0
56785.0,STARLINK-5931,PAYLOAD,2024-01-25 14:01:59,14.98328064,0.0002661,70.0013,136.3802,256.3578,103.7284,-3.6234e-05,-5.25e-06,0.0,0 STARLINK-5931,1 56785U 23078U   24025.58471187 -.00000525  00000-0 -36234-4 0  9991,2 56785  70.0013 136.3802 0002661 256.3578 103.7284 14.98328064 37413,6950.199,96.107,573.913,570.214,0.0
56785.0,STARLINK-5931,PAYLOAD,2024-01-25 17:14:15,14.98329809,0.0002742,70.0011,136.0434,259.5733,100.5117,-2.7693e-05,-4.23e-06,0.0,0 STARLINK-5931,1 56785U 23078U   24025.71823076 -.00000423  00000-0 -27693-4 0  9990,2 56785  70.0011 136.0434 0002742 259.5733 100.5117 14.98329809 37437,6950.193,96.107,573.964,570.153,0.0
56785.0,STARLINK-5931,PAYLOAD,2024-01-26 14:04:00,14.9832621,0.0002657,70.0009,133.8544,260.939,99.1469,6.9217e-05,7.33e-06,0.0,0 STARLINK-5931,1 56785U 23078U   24026.58611168  .00000733  00000-0  69217-4 0  9993,2 56785  70.0009 133.8544 0002657 260.9390  99.1469 14.98326210 37561,6950.205,96.107,573.916,570.223,0.0
56785.0,STARLINK-5931,PAYLOAD,2024-01-26 17:16:16,14.98327736,0.0002649,70.001,133.5179,260.9874,99.0986,8.2348e-05,8.9e-06,0.0,0 STARLINK-5931,1 56785U 23078U   24026.71963058  .00000890  00000-0  82348-4 0  9990,2 56785  70.0010 133.5179 0002649 260.9874  99.0986 14.98327736 37154,6950.2,96.107,573.906,570.224,0.0
56785.0,STARLINK-5931,PAYLOAD,2024-01-27 14:06:00,14.9833335,0.0002652,70.001,131.3295,259.8136,100.2724,5.8552e-05,6.06e-06,0.0,0 STARLINK-5931,1 56785U 23078U   24027.58750715  .00000606  00000-0  58552-4 0  9995,2 56785  70.0010 131.3295 0002652 259.8136 100.2724 14.98333350 37717,6950.183,96.107,573.891,570.204,0.0
56785.0,STARLINK-5931,PAYLOAD,2024-01-27 15:42:08,14.9833391,0.0002646,70.001,131.1613,260.3831,99.7029,6.331e-05,6.63e-06,0.0,0 STARLINK-5931,1 56785U 23078U   24027.65426653  .00000663  00000-0  63310-4 0  9995,2 56785  70.0010 131.1613 0002646 260.3831  99.7029 14.98333910 37724,6950.181,96.107,573.885,570.207,0.0
56785.0,STARLINK-5931,PAYLOAD,2024-01-28 10:55:45,14.98329903,0.0002577,70.0011,129.1415,255.1781,104.9092,-1.0195e-05,-2.15e-06,0.0,0 STARLINK-5931,1 56785U 23078U   24028.45538983 -.00000215  00000-0 -10195-4 0  9992,2 56785  70.0011 129.1415 0002577 255.1781 104.9092 14.98329903 37413,6950.193,96.107,573.849,570.267,0.0
56785.0,STARLINK-5931,PAYLOAD,2024-01-28 14:08:01,14.98328638,0.0002595,70.0011,128.805,255.5984,104.4887,-2.5663e-05,-3.99e-06,0.0,0 STARLINK-5931,1 56785U 23078U   24028.58891107 -.00000399  00000-0 -25663-4 0  9995,2 56785  70.0011 128.8050 0002595 255.5984 104.4887 14.98328638 37863,6950.197,96.107,573.866,570.259,0.0
56785.0,STARLINK-5931,PAYLOAD,2024-01-28 17:20:18,14.98328978,0.0002602,70.001,128.468,257.4595,102.6273,-2.2307e-05,-3.59e-06,0.0,0 STARLINK-5931,1 56785U 23078U   24028.72243086 -.00000359  00000-0 -22307-4 0  9996,2 56785  70.0010 128.4680 0002602 257.4595 102.6273 14.98328978 37883,6950.196,96.107,573.869,570.253,0.0
56785.0,STARLINK-5931,PAYLOAD,2024-01-29 10:57:46,14.98336866,0.0002739,70.0007,126.6161,265.2471,94.8375,1.615e-06,-7.4e-07,0.0,0 STARLINK-5931,1 56785U 23078U   24029.45678326 -.00000074  00000-0  16150-5 0  9999,2 56785  70.0007 126.6161 0002739 265.2471  94.8375 14.98336866 37569,6950.172,96.107,573.94,570.133,0.0
56785.0,STARLINK-5931,PAYLOAD,2024-01-30 10:59:47,14.9832616,0.0003026,70.0001,124.0907,267.2983,92.783,-4.4896e-05,-6.29e-06,0.0,0 STARLINK-5931,1 56785U 23078U   24030.45819061 -.00000629  00000-0 -44896-4 0  9998,2 56785  70.0001 124.0907 0003026 267.2983  92.7830 14.98326160 37719,6950.205,96.107,574.173,569.967,0.0
56785.0,STARLINK-5931,PAYLOAD,2024-01-30 14:12:03,14.98324641,0.0003038,70.0001,123.7541,267.2994,92.7817,-6.0946e-05,-8.2e-06,0.0,0 STARLINK-5931,1 56785U 23078U   24030.59171236 -.00000820  00000-0 -60946-4 0  9995,2 56785  70.0001 123.7541 0003038 267.2994  92.7817 14.98324641 38161,6950.209,96.107,574.186,569.963,0.0
56785.0,STARLINK-5931,PAYLOAD,2024-01-30 15:48:11,14.98325057,0.000303,70.0002,123.586,267.002,93.0792,-5.5636e-05,-7.57e-06,0.0,0 STARLINK-5931,1 56785U 23078U   24030.65847211 -.00000757  00000-0 -55636-4 0  9994,2 56785  70.0002 123.5860 0003030 267.0020  93.0792 14.98325057 38173,6950.208,96.107,574.179,569.967,0.0
56785.0,STARLINK-5931,PAYLOAD,2024-01-31 11:01:48,14.98332736,0.0003359,69.9997,121.5654,273.9273,86.1502,1.309e-05,6.3e-07,0.0,0 STARLINK-5931,1 56785U 23078U   24031.45958517  .00000063  00000-0  13090-4 0  9991,2 56785  69.9997 121.5654 0003359 273.9273  86.1502 14.98332736 37861,6950.184,96.107,574.384,569.715,0.0
